ORBCOMM FM24            
1 25478U 98053D   24265.26755284  .00002553  00000+0  91076-3 0  9999
2 25478  45.0071 102.7736 0000710 301.0004  59.0774 14.36439290358758
ORBCOMM FM25            
1 25479U 98053E   24265.58321946  .00002577  00000+0  91910-3 0  9992
2 25479  45.0062  99.5330 0002971 339.3566  20.7162 14.36420746359090
ORBCOMM FM26            
1 25480U 98053F   24265.57687583  .00001987  00000+0  72956-3 0  9998
2 25480  45.0059  94.2997 0005084   3.2286 356.8593 14.35736630359028
ORBCOMM FM27            
1 25481U 98053G   24265.57245639  .00002379  00000+0  85228-3 0  9993
2 25481  45.0046  99.8417 0000971 151.5124 208.5776 14.36413561359023
ORBCOMM FM28            
1 25482U 98053H   24265.52069789  .00002285  00000+0  81443-3 0  9990
2 25482  45.0064  38.1314 0002297  31.1355 328.9628 14.36782599359694
ORBCOMM FM30            
1 25980U 99065A   24265.45653995  .00002294  00000+0  83253-3 0  9998
2 25980  45.0306 280.5311 0003843  99.3896 260.7386 14.35885548295803
ORBCOMM FM31            
1 25981U 99065B   24265.35333768  .00002146  00000+0  78236-3 0  9992
2 25981  45.0217 274.6239 0001506 154.5218 205.5704 14.35863743295347
ORBCOMM FM32            
1 25982U 99065C   24265.49725900  .00001758  00000+0  66237-3 0  9997
2 25982  45.0148 288.6924 0003609 144.2752 215.8337 14.34881691295989
